start=new Date('2021-11-13T00:00:00.000Z').valueOf();
sats=[{"MEAN_MOTION":"15.06402712","TLE_LINE2":"2 45085  53.0535 129.5998 0001753  79.2659 280.8528 15.06402712 99214","CENTER_NAME":"EARTH","TIME_SYSTEM":"UTC","REV_AT_EPOCH":"9921","COUNTRY_CODE":"US","MEAN_MOTION_DOT":"0.00000473","MEAN_ELEMENT_THEORY":"SGP4","REF_FRAME":"TEME","RA_OF_ASC_NODE":"129.5998","APOAPSIS":"548.419","TLE_LINE1":"1 45085U 20006AT  21316.89625196  .00000473  00000-0  50671-4 0  9996","OBJECT_ID":"2020-006AT","ARG_OF_PERICENTER":"79.2659","FILE":"3213639","NORAD_CAT_ID":"45085","MEAN_ANOMALY":"280.8528","CLASSIFICATION_TYPE":"U","DECAY_DATE":null,"ECCENTRICITY":"0.00017530","EPOCH":"2021-11-12T21:30:36.169344","EPHEMERIS_TYPE":"0","PERIAPSIS":"545.991","MEAN_MOTION_DDOT":"0.0000000000000","RCS_SIZE":"LARGE","SEMIMAJOR_AXIS":"6925.340","INCLINATION":"53.0535","OBJECT_TYPE":"PAYLOAD","ELEMENT_SET_NO":"999","SITE":"AFETR","GP_ID":"189644569","LAUNCH_DATE":"2020-01-29","PERIOD":"95.592","BSTAR":"0.00005067100000","OBJECT_NAME":"STARLINK-1179"},{"ELEMENT_SET_NO":"999","OBJECT_TYPE":"PAYLOAD","INCLINATION":"53.0025","SEMIMAJOR_AXIS":"6922.812","RCS_SIZE":"LARGE","MEAN_MOTION_DDOT":"0.0000000000000","PERIAPSIS":"542.911","EPHEMERIS_TYPE":"0","EPOCH":"2021-11-12T19:00:36.779904","ECCENTRICITY":"0.00025510","OBJECT_NAME":"STARLINK-1181","BSTAR":"0.00010526000000","GP_ID":"189644814","PERIOD":"95.540","LAUNCH_DATE":"2020-01-29","SITE":"AFETR","APOAPSIS":"546.443","RA_OF_ASC_NODE":"127.8711","REF_FRAME":"TEME","MEAN_ELEMENT_THEORY":"SGP4","MEAN_MOTION_DOT":"0.00001320","COUNTRY_CODE":"US","REV_AT_EPOCH":"9912","TIME_SYSTEM":"UTC","CENTER_NAME":"EARTH","TLE_LINE2":"2 45086  53.0025 127.8711 0002551  90.0765 270.0516 15.07228159 99129","MEAN_MOTION":"15.07228159","DECAY_DATE":null,"CLASSIFICATION_TYPE":"U","NORAD_CAT_ID":"45086","MEAN_ANOMALY":"270.0516","FILE":"3213639","OBJECT_ID":"2020-006AU","ARG_OF_PERICENTER":"90.0765","TLE_LINE1":"1 45086U 20006AU  21316.79209236  .00001320  00000-0  10526-3 0  9995"},{"OBJECT_NAME":"STARLINK-1185","BSTAR":"0.00007705000000","SITE":"AFETR","GP_ID":"189643081","LAUNCH_DATE":"2020-01-29","PERIOD":"95.593","OBJECT_TYPE":"PAYLOAD","ELEMENT_SET_NO":"999","SEMIMAJOR_AXIS":"6925.370","INCLINATION":"53.0536","PERIAPSIS":"546.032","MEAN_MOTION_DDOT":"0.0000000000000","RCS_SIZE":"LARGE","ECCENTRICITY":"0.00017370","EPOCH":"2021-11-12T21:09:24.166944","EPHEMERIS_TYPE":"0","CLASSIFICATION_TYPE":"U","DECAY_DATE":null,"FILE":"3213639","NORAD_CAT_ID":"45087","MEAN_ANOMALY":"275.1755","TLE_LINE1":"1 45087U 20006AV  21316.88152971  .00000866  00000-0  77050-4 0  9999","OBJECT_ID":"2020-006AV","ARG_OF_PERICENTER":"84.9432","RA_OF_ASC_NODE":"129.6680","REF_FRAME":"TEME","APOAPSIS":"548.438","MEAN_ELEMENT_THEORY":"SGP4","REV_AT_EPOCH":"9921","COUNTRY_CODE":"US","MEAN_MOTION_DOT":"0.00000866","MEAN_MOTION":"15.06393073","TLE_LINE2":"2 45087  53.0536 129.6680 0001737  84.9432 275.1755 15.06393073 99218","CENTER_NAME":"EARTH","TIME_SYSTEM":"UTC"},{"TIME_SYSTEM":"UTC","TLE_LINE2":"2 45088  53.0541 129.5851 0001616  88.1836 271.9338 15.06394321 99212","MEAN_MOTION":"15.06394321","CENTER_NAME":"EARTH","COUNTRY_CODE":"US","MEAN_MOTION_DOT":"0.00000326","REV_AT_EPOCH":"9921","MEAN_ELEMENT_THEORY":"SGP4","APOAPSIS":"548.350","RA_OF_ASC_NODE":"129.5851","REF_FRAME":"TEME","TLE_LINE1":"1 45088U 20006AW  21316.90363105  .00000326  00000-0  40792-4 0  9990","ARG_OF_PERICENTER":"88.1836","OBJECT_ID":"2020-006AW","NORAD_CAT_ID":"45088","MEAN_ANOMALY":"271.9338","FILE":"3213639","DECAY_DATE":null,"CLASSIFICATION_TYPE":"U","EPOCH":"2021-11-12T21:41:13.722720","EPHEMERIS_TYPE":"0","ECCENTRICITY":"0.00016160","MEAN_MOTION_DDOT":"0.0000000000000","RCS_SIZE":"LARGE","PERIAPSIS":"546.112","INCLINATION":"53.0541","SEMIMAJOR_AXIS":"6925.366","OBJECT_TYPE":"PAYLOAD","ELEMENT_SET_NO":"999","LAUNCH_DATE":"2020-01-29","GP_ID":"189643329","PERIOD":"95.593","SITE":"AFETR","BSTAR":"0.00004079200000","OBJECT_NAME":"STARLINK-1183"},{"NORAD_CAT_ID":"45089","MEAN_ANOMALY":"267.4868","FILE":"3213639","OBJECT_ID":"2020-006AX","ARG_OF_PERICENTER":"92.6274","TLE_LINE1":"1 45089U 20006AX  21316.90755810 -.00054911  00000-0 -37344-2 0  9997","DECAY_DATE":null,"CLASSIFICATION_TYPE":"U","MEAN_MOTION_DOT":"-0.00054911","COUNTRY_CODE":"US","REV_AT_EPOCH":"9922","TIME_SYSTEM":"UTC","CENTER_NAME":"EARTH","TLE_LINE2":"2 45089  53.0540 129.5685 0001337  92.6274 267.4868 15.06018507 99221","MEAN_MOTION":"15.06018507","APOAPSIS":"549.309","RA_OF_ASC_NODE":"129.5685","REF_FRAME":"TEME","MEAN_ELEMENT_THEORY":"SGP4","BSTAR":"-0.00373440000000","LAUNCH_DATE":"2020-01-29","GP_ID":"189644069","PERIOD":"95.616","SITE":"AFETR","OBJECT_NAME":"STARLINK-1136","RCS_SIZE":"LARGE","MEAN_MOTION_DDOT":"0.0000000000000","PERIAPSIS":"547.457","EPHEMERIS_TYPE":"0","EPOCH":"2021-11-12T21:46:53.019840","ECCENTRICITY":"0.00013370","OBJECT_TYPE":"PAYLOAD","ELEMENT_SET_NO":"999","SEMIMAJOR_AXIS":"6926.518","INCLINATION":"53.0540"},{"MEAN_ELEMENT_THEORY":"SGP4","APOAPSIS":"548.293","RA_OF_ASC_NODE":"129.6410","REF_FRAME":"TEME","TIME_SYSTEM":"UTC","CENTER_NAME":"EARTH","MEAN_MOTION":"15.06405481","TLE_LINE2":"2 45090  53.0538 129.6410 0001583  73.4868 286.6295 15.06405481 99213","MEAN_MOTION_DOT":"-0.00000846","COUNTRY_CODE":"US","REV_AT_EPOCH":"9921","DECAY_DATE":null,"CLASSIFICATION_TYPE":"U","ARG_OF_PERICENTER":"73.4868","OBJECT_ID":"2020-006AY","TLE_LINE1":"1 45090U 20006AY  21316.88887910 -.00000846  00000-0 -37868-4 0  9994","NORAD_CAT_ID":"45090","MEAN_ANOMALY":"286.6295","FILE":"3213639","SEMIMAJOR_AXIS":"6925.332","INCLINATION":"53.0538","ELEMENT_SET_NO":"999","OBJECT_TYPE":"PAYLOAD","EPHEMERIS_TYPE":"0","EPOCH":"2021-11-12T21:19:59.154240","ECCENTRICITY":"0.00015830","RCS_SIZE":"LARGE","MEAN_MOTION_DDOT":"0.0000000000000","PERIAPSIS":"546.100","OBJECT_NAME":"STARLINK-1176","GP_ID":"189644314","PERIOD":"95.592","LAUNCH_DATE":"2020-01-29","SITE":"AFETR","BSTAR":"-0.00003786800000"},{"EPHEMERIS_TYPE":"0","EPOCH":"2021-11-12T20:42:52.036992","ECCENTRICITY":"0.00016040","RCS_SIZE":"LARGE","MEAN_MOTION_DDOT":"0.0000000000000","PERIAPSIS":"546.099","SEMIMAJOR_AXIS":"6925.345","INCLINATION":"53.0541","OBJECT_TYPE":"PAYLOAD","ELEMENT_SET_NO":"999","GP_ID":"189643582","LAUNCH_DATE":"2020-01-29","PERIOD":"95.592","SITE":"AFETR","BSTAR":"0.00008387500000","OBJECT_NAME":"STARLINK-1137","TIME_SYSTEM":"UTC","CENTER_NAME":"EARTH","MEAN_MOTION":"15.06401118","TLE_LINE2":"2 45092  53.0541 129.7627 0001604  78.2401 281.8768 15.06401118 99552","MEAN_MOTION_DOT":"0.00000968","COUNTRY_CODE":"US","REV_AT_EPOCH":"9955","MEAN_ELEMENT_THEORY":"SGP4","APOAPSIS":"548.321","REF_FRAME":"TEME","RA_OF_ASC_NODE":"129.7627","ARG_OF_PERICENTER":"78.2401","OBJECT_ID":"2020-006BA","TLE_LINE1":"1 45092U 20006BA  21316.86310228  .00000968  00000-0  83875-4 0  9999","MEAN_ANOMALY":"281.8768","NORAD_CAT_ID":"45092","FILE":"3213639","DECAY_DATE":null,"CLASSIFICATION_TYPE":"U"},{"DECAY_DATE":null,"CLASSIFICATION_TYPE":"U","NORAD_CAT_ID":"45093","MEAN_ANOMALY":"273.4518","FILE":"3213639","OBJECT_ID":"2020-006BB","ARG_OF_PERICENTER":"86.6651","TLE_LINE1":"1 45093U 20006BB  21316.79305310  .00001548  00000-0  12281-3 0  9995","APOAPSIS":"548.293","RA_OF_ASC_NODE":"130.0730","REF_FRAME":"TEME","MEAN_ELEMENT_THEORY":"SGP4","MEAN_MOTION_DOT":"0.00001548","COUNTRY_CODE":"US","REV_AT_EPOCH":"9919","TIME_SYSTEM":"UTC","CENTER_NAME":"EARTH","MEAN_MOTION":"15.06403281","TLE_LINE2":"2 45093  53.0539 130.0730 0001573  86.6651 273.4518 15.06403281 99198","OBJECT_NAME":"STARLINK-1142","BSTAR":"0.00012281000000","GP_ID":"189643830","LAUNCH_DATE":"2020-01-29","PERIOD":"95.592","SITE":"AFETR","OBJECT_TYPE":"PAYLOAD","ELEMENT_SET_NO":"999","SEMIMAJOR_AXIS":"6925.339","INCLINATION":"53.0539","RCS_SIZE":"LARGE","MEAN_MOTION_DDOT":"0.0000000000000","PERIAPSIS":"546.114","EPHEMERIS_TYPE":"0","EPOCH":"2021-11-12T19:01:59.787840","ECCENTRICITY":"0.00015730"},{"REF_FRAME":"TEME","RA_OF_ASC_NODE":"129.6944","APOAPSIS":"548.504","MEAN_ELEMENT_THEORY":"SGP4","REV_AT_EPOCH":"9921","COUNTRY_CODE":"US","MEAN_MOTION_DOT":"-0.00000965","TLE_LINE2":"2 45094  53.0553 129.6944 0001848  91.0680 269.0521 15.06396405 99210","MEAN_MOTION":"15.06396405","CENTER_NAME":"EARTH","TIME_SYSTEM":"UTC","CLASSIFICATION_TYPE":"U","DECAY_DATE":null,"FILE":"3213639","NORAD_CAT_ID":"45094","MEAN_ANOMALY":"269.0521","TLE_LINE1":"1 45094U 20006BC  21316.87413578 -.00000965  00000-0 -45874-4 0  9990","OBJECT_ID":"2020-006BC","ARG_OF_PERICENTER":"91.0680","ELEMENT_SET_NO":"999","OBJECT_TYPE":"PAYLOAD","SEMIMAJOR_AXIS":"6925.360","INCLINATION":"53.0553","PERIAPSIS":"545.945","MEAN_MOTION_DDOT":"0.0000000000000","RCS_SIZE":"LARGE","ECCENTRICITY":"0.00018480","EPOCH":"2021-11-12T20:58:45.331392","EPHEMERIS_TYPE":"0","OBJECT_NAME":"STARLINK-1146","BSTAR":"-0.00004587400000","SITE":"AFETR","PERIOD":"95.592","GP_ID":"189644570","LAUNCH_DATE":"2020-01-29"},{"REF_FRAME":"TEME","RA_OF_ASC_NODE":"129.6962","APOAPSIS":"548.306","MEAN_ELEMENT_THEORY":"SGP4","REV_AT_EPOCH":"9921","MEAN_MOTION_DOT":"0.00000475","COUNTRY_CODE":"US","CENTER_NAME":"EARTH","MEAN_MOTION":"15.06389755","TLE_LINE2":"2 45095  53.0545 129.6962 0001532  82.5112 277.6051 15.06389755 99210","TIME_SYSTEM":"UTC","CLASSIFICATION_TYPE":"U","DECAY_DATE":null,"FILE":"3213639","MEAN_ANOMALY":"277.6051","NORAD_CAT_ID":"45095","ARG_OF_PERICENTER":"82.5112","OBJECT_ID":"2020-006BD","TLE_LINE1":"1 45095U 20006BD  21316.87782729  .00000475  00000-0  50787-4 0  9991","ELEMENT_SET_NO":"999","OBJECT_TYPE":"PAYLOAD","SEMIMAJOR_AXIS":"6925.380","INCLINATION":"53.0545","PERIAPSIS":"546.184","RCS_SIZE":"LARGE","MEAN_MOTION_DDOT":"0.0000000000000","ECCENTRICITY":"0.00015320","EPHEMERIS_TYPE":"0","EPOCH":"2021-11-12T21:04:04.277856","OBJECT_NAME":"STARLINK-1147","BSTAR":"0.00005078700000","SITE":"AFETR","LAUNCH_DATE":"2020-01-29","GP_ID":"189644815","PERIOD":"95.593"}];
